start=new Date('2022-10-10T00:00:00.000Z').valueOf();
sats=[{"REF_FRAME":"TEME","EPHEMERIS_TYPE":"0","BSTAR":"-0.00004356700000","INCLINATION":"53.2189","OBJECT_TYPE":"PAYLOAD","RCS_SIZE":"LARGE","SITE":"AFETR","PERIOD":"95.438","OBJECT_NAME":"STARLINK-4020","TLE_LINE1":"1 52703U 22053AZ  22282.83778715 -.00000982  00000-0 -43567-4 0  9991","SEMIMAJOR_AXIS":"6917.889","ARG_OF_PERICENTER":"29.8921","DECAY_DATE":null,"REV_AT_EPOCH":"2180","COUNTRY_CODE":"US","OBJECT_ID":"2022-053AZ","APOAPSIS":"541.427","CENTER_NAME":"EARTH","MEAN_MOTION_DDOT":"0.0000000000000","MEAN_MOTION":"15.08837095","GP_ID":"214605741","PERIAPSIS":"538.082","RA_OF_ASC_NODE":"331.4569","TLE_LINE2":"2 52703  53.2189 331.4569 0002418  29.8921 330.2209 15.08837095 21800","LAUNCH_DATE":"2022-05-18","MEAN_MOTION_DOT":"-0.00000982","FILE":"3598879","NORAD_CAT_ID":"52703","ECCENTRICITY":"0.00024180","TIME_SYSTEM":"UTC","EPOCH":"2022-10-09T20:06:24.809760","MEAN_ANOMALY":"330.2209","MEAN_ELEMENT_THEORY":"SGP4","CLASSIFICATION_TYPE":"U","ELEMENT_SET_NO":"999"},{"SITE":"AFETR","PERIOD":"95.437","REF_FRAME":"TEME","EPHEMERIS_TYPE":"0","BSTAR":"0.00019862000000","INCLINATION":"53.2183","OBJECT_TYPE":"PAYLOAD","RCS_SIZE":"LARGE","DECAY_DATE":null,"REV_AT_EPOCH":"2308","COUNTRY_CODE":"US","OBJECT_ID":"2022-053BA","TLE_LINE1":"1 52704U 22053BA  22282.85249941  .00002875  00000-0  19862-3 0  9999","ARG_OF_PERICENTER":"28.3744","SEMIMAJOR_AXIS":"6917.858","OBJECT_NAME":"STARLINK-3999","PERIAPSIS":"538.105","RA_OF_ASC_NODE":"331.3933","APOAPSIS":"541.342","CENTER_NAME":"EARTH","MEAN_MOTION_DDOT":"0.0000000000000","MEAN_MOTION":"15.08847204","GP_ID":"214605421","MEAN_ANOMALY":"331.7376","MEAN_ELEMENT_THEORY":"SGP4","CLASSIFICATION_TYPE":"U","ELEMENT_SET_NO":"999","TLE_LINE2":"2 52704  53.2183 331.3933 0002340  28.3744 331.7376 15.08847204 23086","LAUNCH_DATE":"2022-05-18","MEAN_MOTION_DOT":"0.00002875","FILE":"3598879","NORAD_CAT_ID":"52704","ECCENTRICITY":"0.00023400","TIME_SYSTEM":"UTC","EPOCH":"2022-10-09T20:27:35.949024"},{"TLE_LINE1":"1 52705U 22053BB  22282.84146080  .00001408  00000-0  10653-3 0  9999","ARG_OF_PERICENTER":"35.7289","SEMIMAJOR_AXIS":"6917.871","OBJECT_NAME":"STARLINK-3844","DECAY_DATE":null,"REV_AT_EPOCH":"2308","COUNTRY_CODE":"US","OBJECT_ID":"2022-053BB","REF_FRAME":"TEME","EPHEMERIS_TYPE":"0","BSTAR":"0.00010653000000","INCLINATION":"53.2176","OBJECT_TYPE":"PAYLOAD","RCS_SIZE":"LARGE","SITE":"AFETR","PERIOD":"95.437","TLE_LINE2":"2 52705  53.2176 331.4463 0002516  35.7289 324.3871 15.08843157 23080","LAUNCH_DATE":"2022-05-18","MEAN_MOTION_DOT":"0.00001408","FILE":"3598879","NORAD_CAT_ID":"52705","TIME_SYSTEM":"UTC","ECCENTRICITY":"0.00025160","EPOCH":"2022-10-09T20:11:42.213120","MEAN_ANOMALY":"324.3871","MEAN_ELEMENT_THEORY":"SGP4","CLASSIFICATION_TYPE":"U","ELEMENT_SET_NO":"999","APOAPSIS":"541.476","CENTER_NAME":"EARTH","MEAN_MOTION_DDOT":"0.0000000000000","MEAN_MOTION":"15.08843157","GP_ID":"214605998","PERIAPSIS":"537.995","RA_OF_ASC_NODE":"331.4463"},{"DECAY_DATE":null,"REV_AT_EPOCH":"2308","COUNTRY_CODE":"US","OBJECT_ID":"2022-053BC","SEMIMAJOR_AXIS":"6917.864","TLE_LINE1":"1 52706U 22053BC  22282.84514366  .00004137  00000-0  27786-3 0  9993","ARG_OF_PERICENTER":"33.4076","OBJECT_NAME":"STARLINK-3970","SITE":"AFETR","PERIOD":"95.437","REF_FRAME":"TEME","BSTAR":"0.00027786000000","EPHEMERIS_TYPE":"0","OBJECT_TYPE":"PAYLOAD","INCLINATION":"53.2179","RCS_SIZE":"LARGE","MEAN_ELEMENT_THEORY":"SGP4","MEAN_ANOMALY":"326.7059","ELEMENT_SET_NO":"999","CLASSIFICATION_TYPE":"U","LAUNCH_DATE":"2022-05-18","MEAN_MOTION_DOT":"0.00004137","TLE_LINE2":"2 52706  53.2179 331.4303 0002269  33.4076 326.7059 15.08845325 23084","NORAD_CAT_ID":"52706","FILE":"3598879","ECCENTRICITY":"0.00022690","TIME_SYSTEM":"UTC","EPOCH":"2022-10-09T20:17:00.412224","PERIAPSIS":"538.159","RA_OF_ASC_NODE":"331.4303","APOAPSIS":"541.299","MEAN_MOTION_DDOT":"0.0000000000000","CENTER_NAME":"EARTH","GP_ID":"214606552","MEAN_MOTION":"15.08845325"},{"PERIAPSIS":"538.183","RA_OF_ASC_NODE":"331.4739","CENTER_NAME":"EARTH","MEAN_MOTION_DDOT":"0.0000000000000","APOAPSIS":"541.276","MEAN_MOTION":"15.08845188","GP_ID":"214606159","MEAN_ANOMALY":"324.9200","MEAN_ELEMENT_THEORY":"SGP4","CLASSIFICATION_TYPE":"U","ELEMENT_SET_NO":"999","NORAD_CAT_ID":"52707","FILE":"3598879","ECCENTRICITY":"0.00022350","TIME_SYSTEM":"UTC","TLE_LINE2":"2 52707  53.2194 331.4739 0002235  35.1940 324.9200 15.08845188 23149","LAUNCH_DATE":"2022-05-18","MEAN_MOTION_DOT":"-0.00000999","EPOCH":"2022-10-09T20:02:28.913568","SITE":"AFETR","PERIOD":"95.437","EPHEMERIS_TYPE":"0","BSTAR":"-0.00004462700000","REF_FRAME":"TEME","RCS_SIZE":"LARGE","INCLINATION":"53.2194","OBJECT_TYPE":"PAYLOAD","REV_AT_EPOCH":"2314","DECAY_DATE":null,"OBJECT_ID":"2022-053BD","COUNTRY_CODE":"US","SEMIMAJOR_AXIS":"6917.865","TLE_LINE1":"1 52707U 22053BD  22282.83505687 -.00000999  00000-0 -44627-4 0  9997","ARG_OF_PERICENTER":"35.1940","OBJECT_NAME":"STARLINK-4007"},{"INCLINATION":"53.2189","OBJECT_TYPE":"PAYLOAD","RCS_SIZE":"LARGE","REF_FRAME":"TEME","EPHEMERIS_TYPE":"0","BSTAR":"0.00058409000000","PERIOD":"95.437","SITE":"AFETR","TLE_LINE1":"1 52708U 22053BE  22282.86818797  .00009023  00000-0  58409-3 0  9997","SEMIMAJOR_AXIS":"6917.846","ARG_OF_PERICENTER":"28.2116","OBJECT_NAME":"STARLINK-3962","COUNTRY_CODE":"US","OBJECT_ID":"2022-053BE","DECAY_DATE":null,"REV_AT_EPOCH":"2329","MEAN_MOTION":"15.08851268","GP_ID":"214605838","APOAPSIS":"541.409","CENTER_NAME":"EARTH","MEAN_MOTION_DDOT":"0.0000000000000","RA_OF_ASC_NODE":"331.3092","PERIAPSIS":"538.013","EPOCH":"2022-10-09T20:50:11.440608","TLE_LINE2":"2 52708  53.2189 331.3092 0002454  28.2116 331.9009 15.08851268 23293","LAUNCH_DATE":"2022-05-18","MEAN_MOTION_DOT":"0.00009023","NORAD_CAT_ID":"52708","FILE":"3598879","TIME_SYSTEM":"UTC","ECCENTRICITY":"0.00024540","CLASSIFICATION_TYPE":"U","ELEMENT_SET_NO":"999","MEAN_ANOMALY":"331.9009","MEAN_ELEMENT_THEORY":"SGP4"},{"FILE":"3598879","NORAD_CAT_ID":"52830","ECCENTRICITY":"0.00015470","TIME_SYSTEM":"UTC","TLE_LINE2":"2 52830  53.2153 230.7171 0001547  63.1962 328.6137 15.08851477  1304","MEAN_MOTION_DOT":"-0.00036141","LAUNCH_DATE":"2022-06-17","EPOCH":"2022-10-10T00:00:00.999648","MEAN_ANOMALY":"328.6137","MEAN_ELEMENT_THEORY":"SGP4","CLASSIFICATION_TYPE":"U","ELEMENT_SET_NO":"999","CENTER_NAME":"EARTH","MEAN_MOTION_DDOT":"0.0000000000000","APOAPSIS":"540.780","MEAN_MOTION":"15.08851477","GP_ID":"214605753","PERIAPSIS":"538.640","RA_OF_ASC_NODE":"230.7171","SEMIMAJOR_AXIS":"6917.845","TLE_LINE1":"1 52830U 22062A   22283.00001157 -.00036141  00000-0 -22634-2 0  9997","ARG_OF_PERICENTER":"63.1962","OBJECT_NAME":"STARLINK-4091","REV_AT_EPOCH":"130","DECAY_DATE":null,"OBJECT_ID":"2022-062A","COUNTRY_CODE":"US","EPHEMERIS_TYPE":"0","BSTAR":"-0.00226340000000","REF_FRAME":"TEME","RCS_SIZE":"LARGE","INCLINATION":"53.2153","OBJECT_TYPE":"PAYLOAD","SITE":"AFETR","PERIOD":"95.437"},{"CENTER_NAME":"EARTH","MEAN_MOTION_DDOT":"0.0000000000000","APOAPSIS":"540.595","MEAN_MOTION":"15.08867817","GP_ID":"214605433","PERIAPSIS":"538.726","RA_OF_ASC_NODE":"230.7201","FILE":"3598879","NORAD_CAT_ID":"52831","ECCENTRICITY":"0.00013510","TIME_SYSTEM":"UTC","TLE_LINE2":"2 52831  53.2165 230.7201 0001351  67.5817 264.2388 15.08867817  1300","LAUNCH_DATE":"2022-06-17","MEAN_MOTION_DOT":"-0.00051183","EPOCH":"2022-10-10T00:00:00.999648","MEAN_ANOMALY":"264.2388","MEAN_ELEMENT_THEORY":"SGP4","CLASSIFICATION_TYPE":"U","ELEMENT_SET_NO":"999","EPHEMERIS_TYPE":"0","BSTAR":"-0.00321840000000","REF_FRAME":"TEME","RCS_SIZE":"LARGE","INCLINATION":"53.2165","OBJECT_TYPE":"PAYLOAD","SITE":"AFETR","PERIOD":"95.436","SEMIMAJOR_AXIS":"6917.795","TLE_LINE1":"1 52831U 22062B   22283.00001157 -.00051183  00000-0 -32184-2 0  9992","ARG_OF_PERICENTER":"67.5817","OBJECT_NAME":"STARLINK-4089","REV_AT_EPOCH":"130","DECAY_DATE":null,"OBJECT_ID":"2022-062B","COUNTRY_CODE":"US"},{"GP_ID":"214606010","MEAN_MOTION":"15.08853120","MEAN_MOTION_DDOT":"0.0000000000000","CENTER_NAME":"EARTH","APOAPSIS":"540.943","RA_OF_ASC_NODE":"230.7195","PERIAPSIS":"538.468","EPOCH":"2022-10-10T00:00:00.999648","FILE":"3598879","NORAD_CAT_ID":"52832","ECCENTRICITY":"0.00017890","TIME_SYSTEM":"UTC","LAUNCH_DATE":"2022-06-17","MEAN_MOTION_DOT":"-0.00041034","TLE_LINE2":"2 52832  53.2166 230.7195 0001789  52.5556 299.2719 15.08853120  1301","ELEMENT_SET_NO":"999","CLASSIFICATION_TYPE":"U","MEAN_ELEMENT_THEORY":"SGP4","MEAN_ANOMALY":"299.2719","RCS_SIZE":"LARGE","OBJECT_TYPE":"PAYLOAD","INCLINATION":"53.2166","BSTAR":"-0.00257390000000","EPHEMERIS_TYPE":"0","REF_FRAME":"TEME","PERIOD":"95.437","SITE":"AFETR","TLE_LINE1":"1 52832U 22062C   22283.00001157 -.00041034  00000-0 -25739-2 0  9995","SEMIMAJOR_AXIS":"6917.840","OBJECT_NAME":"STARLINK-4083","ARG_OF_PERICENTER":"52.5556","OBJECT_ID":"2022-062C","COUNTRY_CODE":"US","REV_AT_EPOCH":"130","DECAY_DATE":null},{"SITE":"AFETR","PERIOD":"95.436","REF_FRAME":"TEME","EPHEMERIS_TYPE":"0","BSTAR":"-0.00307790000000","INCLINATION":"53.2155","OBJECT_TYPE":"PAYLOAD","RCS_SIZE":"LARGE","DECAY_DATE":null,"REV_AT_EPOCH":"130","COUNTRY_CODE":"US","OBJECT_ID":"2022-062D","SEMIMAJOR_AXIS":"6917.802","TLE_LINE1":"1 52833U 22062D   22283.00001157 -.00048974  00000-0 -30779-2 0  9996","OBJECT_NAME":"STARLINK-4086","ARG_OF_PERICENTER":"59.4108","PERIAPSIS":"538.601","RA_OF_ASC_NODE":"230.7158","APOAPSIS":"540.733","CENTER_NAME":"EARTH","MEAN_MOTION_DDOT":"0.0000000000000","MEAN_MOTION":"15.08865764","GP_ID":"214606564","MEAN_ANOMALY":"312.3922","MEAN_ELEMENT_THEORY":"SGP4","CLASSIFICATION_TYPE":"U","ELEMENT_SET_NO":"999","TLE_LINE2":"2 52833  53.2155 230.7158 0001541  59.4108 312.3922 15.08865764  1304","LAUNCH_DATE":"2022-06-17","MEAN_MOTION_DOT":"-0.00048974","ECCENTRICITY":"0.00015410","FILE":"3598879","NORAD_CAT_ID":"52833","TIME_SYSTEM":"UTC","EPOCH":"2022-10-10T00:00:00.999648"}];
